TRANSPORTER-15 H        
1 66673U 25276H   25354.72585582  .00006341  00000+0  32352-3 0  9992
2 66673  97.4372  66.3200 0005787 278.0332  82.0244 15.17064252  3333
TRANSPORTER-15 J        
1 66674U 25276J   25354.66143282  .00004968  00000+0  25674-3 0  9995
2 66674  97.4381  66.2572 0004919 264.8158  95.2514 15.16718847  3320
TRANSPORTER-15 K        
1 66675U 25276K   25354.65975434  .00007399  00000+0  37802-3 0  9994
2 66675  97.4398  66.2629 0004957 268.6144  91.4522 15.16963926  3328
TRANSPORTER-15 L        
1 66676U 25276L   25354.72714539  .00005087  00000+0  26245-3 0  9991
2 66676  97.4396  66.3263 0004774 266.6594  93.4094 15.16766782  3334
TRANSPORTER-15 M        
1 66677U 25276M   25354.78621883  .00008301  00000+0  41821-3 0  9996
2 66677  97.4393  66.3974 0003785 273.7856  86.2945 15.17420178  3345
TRANSPORTER-15 N        
1 66678U 25276N   25354.66060875  .00005992  00000+0  30803-3 0  9993
2 66678  97.4431  66.2709 0004817 259.0358 101.0333 15.16822968  3322
TRANSPORTER-15 P        
1 66679U 25276P   25354.79360566  .00005604  00000+0  28955-3 0  9993
2 66679  97.4371  66.3838 0004582 267.1203  92.9506 15.16674627  3347
TRANSPORTER-15 Q        
1 66680U 25276Q   25354.79233002  .00004835  00000+0  24940-3 0  9994
2 66680  97.4421  66.3977 0004637 255.7916 104.2802 15.16802227  3349
TRANSPORTER-15 R        
1 66681U 25276R   25354.59023683  .00010495  00000+0  52853-3 0  9998
2 66681  97.4344  66.1884 0004881 285.4187  74.6507 15.17361541  3319
TRANSPORTER-15 S        
1 66682U 25276S   25354.65803843  .00006775  00000+0  34519-3 0  9995
2 66682  97.4466  66.2827 0004744 248.5156 111.5571 15.17090962  3326
TRANSPORTER-15 T        
1 66683U 25276T   25354.65870132  .00006644  00000+0  33964-3 0  9999
2 66683  97.4460  66.2805 0004622 251.2161 108.8571 15.16982840  3322
TRANSPORTER-15 U        
1 66684U 25276U   25354.78787632  .00008723  00000+0  44119-3 0  9990
2 66684  97.4485  66.4201 0004469 248.1750 111.9008 15.17263951  3348
TRANSPORTER-15 V        
1 66685U 25276V   25354.65488492  .00013611  00000+0  68337-3 0  9999
2 66685  97.4425  66.2769 0003849 275.0068  85.0727 15.17405824  3326
TRANSPORTER-15 W        
1 66686U 25276W   25354.78979402  .00005587  00000+0  28624-3 0  9998
2 66686  97.4463  66.4127 0004018 253.1443 106.9350 15.16979429  3345
TRANSPORTER-15 X        
1 66687U 25276X   25354.72877661  .00007144  00000+0  36819-3 0  9993
2 66687  97.4397  66.3218 0008504  62.0278 298.1815 15.16644495  3330
TRANSPORTER-15 Y        
1 66688U 25276Y   25354.78898588  .00004846  00000+0  24824-3 0  9990
2 66688  97.4440  66.4081 0003595 257.6156 102.4675 15.17050490  3340
TRANSPORTER-15 Z        
1 66689U 25276Z   25354.78581801  .00004792  00000+0  24455-3 0  9998
2 66689  97.4424  66.4090 0001273 281.0091  79.0999 15.17193165  3348
TRANSPORTER-15 AA       
1 66690U 25276AA  25354.65710127  .00005638  00000+0  28838-3 0  9990
2 66690  97.4405  66.2682 0003557 258.3974 101.6861 15.17034124  3325
TRANSPORTER-15 AB       
1 66691U 25276AB  25354.78733066  .00006877  00000+0  34874-3 0  9995
2 66691  97.4427  66.4063 0003621 259.0696 101.0131 15.17253447  3343
TRANSPORTER-15 AC       
1 66692U 25276AC  25354.58653308  .00007464  00000+0  37693-3 0  9999
2 66692  97.4431  66.2203 0001771 278.2736  81.8297 15.17376001  3312
TRANSPORTER-15 AD       
1 66693U 25276AD  25354.58688476  .00011917  00000+0  59652-3 0  9991
2 66693  97.4387  66.2014 0003296 285.5921  74.4949 15.17546324  3313
YAM-9                   
1 66694U 25276AE  25354.65098503  .00005873  00000+0  29613-3 0  9994
2 66694  97.4424  66.2820 0001360 273.1704  86.9374 15.17522904  3322
IRIDE FM1               
1 66695U 25276AF  25354.70737108  .00006943  00000+0  34260-3 0  9995
2 66695  97.4410  66.3545 0001147 147.2342 212.8963 15.18213048  3337
IRIDE FM2               
1 66696U 25276AG  25354.78511323  .00006347  00000+0  32105-3 0  9997
2 66696  97.4398  66.4001 0002439 279.6240  80.4718 15.17378851  3344
IRIDE FM3               
1 66697U 25276AH  25354.77431274  .00006608  00000+0  32707-3 0  9991
2 66697  97.4395  66.4150 0001046 158.6892 201.4385 15.18126150  3348
IRIDE FM4               
1 66698U 25276AJ  25354.58803794  .00006138  00000+0  31125-3 0  9992
2 66698  97.4394  66.2059 0002742 271.5430  88.5490 15.17302391  3311
IRIDE FM5               
1 66699U 25276AK  25354.65385066  .00001455  00000+0  76340-4 0  9994
2 66699  97.4381  66.2738 0002599 271.4431  88.6505 15.17316331  3320
IRIDE FM6               
1 66700U 25276AL  25354.77375840  .00006828  00000+0  33732-3 0  9995
2 66700  97.4431  66.4250 0001474 167.5217 192.6054 15.18178434  3346
IRIDE FM7               
1 66701U 25276AM  25354.58791481  .00006519  00000+0  32999-3 0  9999
2 66701  97.4432  66.2150 0002906 267.7104  92.3797 15.17337746  3313
IRIDE FM8               
1 66702U 25276AN  25354.58775191  .00006366  00000+0  32224-3 0  9991
2 66702  97.4408  66.2083 0002762 276.1118  83.9801 15.17349141  3315
PELICAN-6               
1 66703U 25276AP  25354.78424399  .00005216  00000+0  26486-3 0  9991
2 66703  97.4415  66.4058 0000945 261.7088  98.4038 15.17322393  3341
FLOCK 4H-1              
1 66704U 25276AQ  25354.77502645  .00006614  00000+0  32804-3 0  9996
2 66704  97.4391  66.4094 0001688 177.4553 182.6690 15.18052731  3347
FLOCK 4H-2              
1 66705U 25276AR  25354.77463252  .00006439  00000+0  31898-3 0  9994
2 66705  97.4385  66.4102 0001033 161.3115 198.8157 15.18102919  3342
FLOCK 4H-3              
1 66706U 25276AS  25354.58588897  .00005416  00000+0  27388-3 0  9990
2 66706  97.4457  66.2251 0002777 257.8939 102.1984 15.17453175  3312
FLOCK 4H-4              
1 66707U 25276AT  25354.58940554  .00005443  00000+0  27736-3 0  9990
2 66707  97.4439  66.2152 0003453 262.8492  97.2349 15.17180240  3314
FLOCK 4H-5              
1 66708U 25276AU  25354.77348417  .00005510  00000+0  27320-3 0  9996
2 66708  97.4390  66.4151 0001044 124.8939 235.2393 15.18137255  3344
FLOCK 4H-6              
1 66709U 25276AV  25354.64493889  .00004229  00000+0  21199-3 0  9991
2 66709  97.4442  66.2978 0002490 216.2401 143.8664 15.17882095  3325
FLOCK 4H-7              
1 66710U 25276AW  25354.58580668  .00015554  00000+0  78001-3 0  9995
2 66710  97.4398  66.2045 0000414  41.2457 318.8808 15.17423858  3314
FLOCK 4H-8              
1 66711U 25276AX  25354.58596484  .00007690  00000+0  38737-3 0  9993
2 66711  97.4438  66.2239 0002454 281.1237  78.9721 15.17454367  3319
FLOCK 4H-9              
1 66712U 25276AY  25354.64513830  .00004533  00000+0  22699-3 0  9998
2 66712  97.4434  66.2958 0002532 226.2441 133.8583 15.17884555  3322
FLOCK 4H-10             
1 66713U 25276AZ  25354.58886267  .00043841  00000+0  21922-2 0  9991
2 66713  97.4403  66.2066 0002840 278.6763  81.4149 15.17289219  3310
FLOCK 4H-11             
1 66714U 25276BA  25354.58437683  .00008402  00000+0  41951-3 0  9995
2 66714  97.4428  66.2227 0002073 289.0990  71.0020 15.17735435  3312
FLOCK 4H-12             
1 66715U 25276BB  25354.77510450  .00007349  00000+0  36410-3 0  9994
2 66715  97.4402  66.4112 0001843 195.2777 164.8402 15.18052878  3651
FLOCK 4H-13             
1 66716U 25276BC  25354.77319431  .00006466  00000+0  31977-3 0  9993
2 66716  97.4437  66.4276 0001572 148.1687 211.9642 15.18161545  3345
FLOCK 4H-14             
1 66717U 25276BD  25354.57371250  .00005296  00000+0  26141-3 0  9996
2 66717  97.4426  66.2313 0001451 132.5712 227.5644 15.18311745  2563
FLOCK 4H-15             
1 66718U 25276BE  25354.06275289  .00004427  00000+0  22690-3 0  9996
2 66718  97.4434  65.6942 0003053 283.5024  76.5869 15.17073597  3232
FLOCK 4H-16             
1 66719U 25276BF  25354.58890000  .00007772  00000+0  39434-3 0  9998
2 66719  97.4451  66.2191 0002963 263.2470  96.8426 15.17195126  3310
FLOCK 4H-17             
1 66720U 25276BG  25354.77504235  .00005250  00000+0  26126-3 0  9996
2 66720  97.4451  66.4314 0002485 199.0649 161.0492 15.18031653  3340
FLOCK 4H-18             
1 66721U 25276BH  25354.58993066  .00010630  00000+0  53907-3 0  9995
2 66721  97.4376  66.2000 0002784 291.1596  68.9340 15.17118542  3310
FLOCK 4H-19             
1 66722U 25276BJ  25354.77244596  .00008514  00000+0  41936-3 0  9991
2 66722  97.4396  66.4153 0002196 167.8141 192.3146 15.18205904  2636
FLOCK 4H-20             
1 66723U 25276BK  25354.77191647  .00007040  00000+0  34679-3 0  9999
2 66723  97.4431  66.4290 0002658 178.4883 181.6360 15.18266003  2594
FLOCK 4H-21             
1 66724U 25276BL  25354.63964853  .00005929  00000+0  29212-3 0  9993
2 66724  97.4401  66.2869 0002346 174.2794 185.8468 15.18324343  2576
FLOCK 4H-22             
1 66725U 25276BM  25354.58559662  .00256591  00000+0  12170-1 0  9992
2 66725  97.4385  66.2018 0003075 150.0653 210.0757 15.18071649  3313
FLOCK 4H-23             
1 66726U 25276BN  25354.65489286  .00096418  00000+0  47691-2 0  9992
2 66726  97.4448  66.2842 0004908 262.8511  97.2165 15.17384434  3327
FLOCK 4H-24             
1 66727U 25276BP  25354.58746616  .00006596  00000+0  33421-3 0  9993
2 66727  97.4450  66.2241 0002748 274.8845  85.2074 15.17304106  3310
FLOCK 4H-25             
1 66728U 25276BQ  25354.57471189  .00006463  00000+0  31939-3 0  9998
2 66728  97.4408  66.2259 0001583 117.7402 242.3992 15.18185501  2594
FLOCK 4H-26             
1 66729U 25276BR  25354.45845391  .00007949  00000+0  40396-3 0  9993
2 66729  97.4406  66.0747 0003552 274.9943  85.0884 15.17128200  3299
FLOCK 4H-27             
1 66730U 25276BS  25354.77439259  .00005887  00000+0  29233-3 0  9998
2 66730  97.4382  66.4103 0001119 126.2787 233.8550 15.18055042  3349
FLOCK 4H-28             
1 66731U 25276BT  25354.72194661  .00004667  00000+0  23875-3 0  9990
2 66731  97.4392  66.3301 0003204 273.7383  86.3484 15.17112963  3338
